IONOSFERA-M 2           
1 61736U 24199B   26064.28587215  .00000098  00000+0  63568-4 0  9992
2 61736  98.7332 298.3802 0000221  81.7262 278.3941 14.22736751116055
BIOMASS                 
1 63772U 25090A   26063.91638449  .00000402  00000+0  79316-4 0  9997
2 63772  98.0747 252.7336 0001178  87.5621 272.5719 14.67534493 45396
GOSAT-GW (IBUKI GW)     
1 64694U 25141A   26064.28171381  .00001318  00000+0  24066-3 0  9994
2 64694  98.0501   3.3311 0001429  83.8606 276.2762 14.67566818 36601
IONOSFERA-M 3           
1 64876U 25155A   26064.28094370  .00000105  00000+0  67430-4 0  9999
2 64876  98.5916  28.8669 0001947 124.8504 235.2857 14.21465191 31645
IONOSFERA-M 4           
1 64877U 25155B   26064.31592882  .00000120  00000+0  74239-4 0  9997
2 64877  98.5912  28.8195 0001593 107.7333 252.4019 14.21466985 31646
MICROCARB               
1 64899U 25156A   26064.16558594  .00001008  00000+0  16757-3 0  9993
2 64899  97.9893 143.1456 0015261 242.0960 117.8703 14.72194530 32665
CO3D 3                  
1 64900U 25156B   26064.25345604  .00008374  00000+0  38951-3 0  9995
2 64900  97.4331 144.4382 0001493 154.2013 205.9297 15.20202611 33748
CO3D 4                  
1 64901U 25156C   26061.29158243  .00001237  00000+0  60250-4 0  9997
2 64901  97.4334 141.5187 0000254 280.3117  79.8089 15.20203154 33293
CO3D 2                  
1 64902U 25156D   26064.28608532  .00006494  00000+0  30276-3 0  9995
2 64902  97.4331 144.3693 0001378 130.6525 229.4830 15.20209531 33744
CO3D 1                  
1 64903U 25156E   26064.28624007  .00005831  00000+0  27231-3 0  9992
2 64903  97.4330 144.3692 0001207 137.1600 222.9730 15.20194693 33749
SENTINEL-6B             
1 66514U 25264A   26064.24485802 -.00000052  00000+0  37086-4 0  9997
2 66514  66.0446 351.0690 0007995 270.6972  89.3127 12.80929330 13851
CSG-3                   
1 67304U 26001A   26064.30029869  .00000624  00000+0  84933-4 0  9996
2 67304  97.8862 249.4014 0001350  90.3721 269.7647 14.82167182  9074
