[{"OBJECT_NAME":"IONOSFERA-M 2","OBJECT_ID":"2024-199B","EPOCH":"2026-03-05T06:51:39.353760","MEAN_MOTION":14.22736751,"ECCENTRICITY":2.212e-5,"INCLINATION":98.7332,"RA_OF_ASC_NODE":298.3802,"ARG_OF_PERICENTER":81.7262,"MEAN_ANOMALY":278.3941,"EPHEMERIS_TYPE":0,"CLASSIFICATION_TYPE":"U","NORAD_CAT_ID":61736,"ELEMENT_SET_NO":999,"REV_AT_EPOCH":11605,"BSTAR":6.3567762e-5,"MEAN_MOTION_DOT":9.8e-7,"MEAN_MOTION_DDOT":0},{"OBJECT_NAME":"BIOMASS","OBJECT_ID":"2025-090A","EPOCH":"2026-03-04T21:59:35.619936","MEAN_MOTION":14.67534493,"ECCENTRICITY":0.00011783,"INCLINATION":98.0747,"RA_OF_ASC_NODE":252.7336,"ARG_OF_PERICENTER":87.5621,"MEAN_ANOMALY":272.5719,"EPHEMERIS_TYPE":0,"CLASSIFICATION_TYPE":"U","NORAD_CAT_ID":63772,"ELEMENT_SET_NO":999,"REV_AT_EPOCH":4539,"BSTAR":7.9315878e-5,"MEAN_MOTION_DOT":4.02e-6,"MEAN_MOTION_DDOT":0},{"OBJECT_NAME":"GOSAT-GW (IBUKI GW)","OBJECT_ID":"2025-141A","EPOCH":"2026-03-05T06:45:40.073184","MEAN_MOTION":14.67566818,"ECCENTRICITY":0.00014297,"INCLINATION":98.0501,"RA_OF_ASC_NODE":3.3311,"ARG_OF_PERICENTER":83.8606,"MEAN_ANOMALY":276.2762,"EPHEMERIS_TYPE":0,"CLASSIFICATION_TYPE":"U","NORAD_CAT_ID":64694,"ELEMENT_SET_NO":999,"REV_AT_EPOCH":3660,"BSTAR":0.00024066101,"MEAN_MOTION_DOT":1.318e-5,"MEAN_MOTION_DDOT":0},{"OBJECT_NAME":"IONOSFERA-M 3","OBJECT_ID":"2025-155A","EPOCH":"2026-03-05T06:44:33.535680","MEAN_MOTION":14.21465191,"ECCENTRICITY":0.00019475,"INCLINATION":98.5916,"RA_OF_ASC_NODE":28.8669,"ARG_OF_PERICENTER":124.8504,"MEAN_ANOMALY":235.2857,"EPHEMERIS_TYPE":0,"CLASSIFICATION_TYPE":"U","NORAD_CAT_ID":64876,"ELEMENT_SET_NO":999,"REV_AT_EPOCH":3164,"BSTAR":6.7430177e-5,"MEAN_MOTION_DOT":1.05e-6,"MEAN_MOTION_DDOT":0},{"OBJECT_NAME":"IONOSFERA-M 4","OBJECT_ID":"2025-155B","EPOCH":"2026-03-05T07:34:56.250048","MEAN_MOTION":14.21466985,"ECCENTRICITY":0.00015939,"INCLINATION":98.5912,"RA_OF_ASC_NODE":28.8195,"ARG_OF_PERICENTER":107.7333,"MEAN_ANOMALY":252.4019,"EPHEMERIS_TYPE":0,"CLASSIFICATION_TYPE":"U","NORAD_CAT_ID":64877,"ELEMENT_SET_NO":999,"REV_AT_EPOCH":3164,"BSTAR":7.4238652e-5,"MEAN_MOTION_DOT":1.2e-6,"MEAN_MOTION_DDOT":0},{"OBJECT_NAME":"MICROCARB","OBJECT_ID":"2025-156A","EPOCH":"2026-03-05T03:58:26.625216","MEAN_MOTION":14.7219453,"ECCENTRICITY":0.00152619,"INCLINATION":97.9893,"RA_OF_ASC_NODE":143.1456,"ARG_OF_PERICENTER":242.096,"MEAN_ANOMALY":117.8703,"EPHEMERIS_TYPE":0,"CLASSIFICATION_TYPE":"U","NORAD_CAT_ID":64899,"ELEMENT_SET_NO":999,"REV_AT_EPOCH":3266,"BSTAR":0.00016757458,"MEAN_MOTION_DOT":1.008e-5,"MEAN_MOTION_DDOT":0},{"OBJECT_NAME":"CO3D 3","OBJECT_ID":"2025-156B","EPOCH":"2026-03-05T06:04:58.601856","MEAN_MOTION":15.20202611,"ECCENTRICITY":0.00014936,"INCLINATION":97.4331,"RA_OF_ASC_NODE":144.4382,"ARG_OF_PERICENTER":154.2013,"MEAN_ANOMALY":205.9297,"EPHEMERIS_TYPE":0,"CLASSIFICATION_TYPE":"U","NORAD_CAT_ID":64900,"ELEMENT_SET_NO":999,"REV_AT_EPOCH":3374,"BSTAR":0.0003895063,"MEAN_MOTION_DOT":8.374e-5,"MEAN_MOTION_DDOT":0},{"OBJECT_NAME":"CO3D 4","OBJECT_ID":"2025-156C","EPOCH":"2026-03-02T06:59:52.721952","MEAN_MOTION":15.20203154,"ECCENTRICITY":2.545e-5,"INCLINATION":97.4334,"RA_OF_ASC_NODE":141.5187,"ARG_OF_PERICENTER":280.3117,"MEAN_ANOMALY":79.8089,"EPHEMERIS_TYPE":0,"CLASSIFICATION_TYPE":"U","NORAD_CAT_ID":64901,"ELEMENT_SET_NO":999,"REV_AT_EPOCH":3329,"BSTAR":6.0250155e-5,"MEAN_MOTION_DOT":1.237e-5,"MEAN_MOTION_DDOT":0},{"OBJECT_NAME":"CO3D 2","OBJECT_ID":"2025-156D","EPOCH":"2026-03-05T06:51:57.771648","MEAN_MOTION":15.20209531,"ECCENTRICITY":0.00013785,"INCLINATION":97.4331,"RA_OF_ASC_NODE":144.3693,"ARG_OF_PERICENTER":130.6525,"MEAN_ANOMALY":229.483,"EPHEMERIS_TYPE":0,"CLASSIFICATION_TYPE":"U","NORAD_CAT_ID":64902,"ELEMENT_SET_NO":999,"REV_AT_EPOCH":3374,"BSTAR":0.00030276379,"MEAN_MOTION_DOT":6.494e-5,"MEAN_MOTION_DDOT":0},{"OBJECT_NAME":"CO3D 1","OBJECT_ID":"2025-156E","EPOCH":"2026-03-05T06:52:11.142048","MEAN_MOTION":15.20194693,"ECCENTRICITY":0.00012079,"INCLINATION":97.433,"RA_OF_ASC_NODE":144.3692,"ARG_OF_PERICENTER":137.16,"MEAN_ANOMALY":222.973,"EPHEMERIS_TYPE":0,"CLASSIFICATION_TYPE":"U","NORAD_CAT_ID":64903,"ELEMENT_SET_NO":999,"REV_AT_EPOCH":3374,"BSTAR":0.0002723056,"MEAN_MOTION_DOT":5.831e-5,"MEAN_MOTION_DDOT":0},{"OBJECT_NAME":"SENTINEL-6B","OBJECT_ID":"2025-264A","EPOCH":"2026-03-05T05:52:35.732928","MEAN_MOTION":12.8092933,"ECCENTRICITY":0.00079957,"INCLINATION":66.0446,"RA_OF_ASC_NODE":351.069,"ARG_OF_PERICENTER":270.6972,"MEAN_ANOMALY":89.3127,"EPHEMERIS_TYPE":0,"CLASSIFICATION_TYPE":"U","NORAD_CAT_ID":66514,"ELEMENT_SET_NO":999,"REV_AT_EPOCH":1385,"BSTAR":3.7086133e-5,"MEAN_MOTION_DOT":-5.2e-7,"MEAN_MOTION_DDOT":0},{"OBJECT_NAME":"CSG-3","OBJECT_ID":"2026-001A","EPOCH":"2026-03-05T07:12:25.806816","MEAN_MOTION":14.82167182,"ECCENTRICITY":0.00013509,"INCLINATION":97.8862,"RA_OF_ASC_NODE":249.4014,"ARG_OF_PERICENTER":90.3721,"MEAN_ANOMALY":269.7647,"EPHEMERIS_TYPE":0,"CLASSIFICATION_TYPE":"U","NORAD_CAT_ID":67304,"ELEMENT_SET_NO":999,"REV_AT_EPOCH":907,"BSTAR":8.4933011e-5,"MEAN_MOTION_DOT":6.24e-6,"MEAN_MOTION_DDOT":0}]
